[{"OBJECT_NAME":"ISS OBJECT YE","OBJECT_ID":"1998-067YE","EPOCH":"2026-02-21T07:06:41.706720","MEAN_MOTION":15.50790998,"ECCENTRICITY":0.00077101,"INCLINATION":51.6323,"RA_OF_ASC_NODE":153.1914,"ARG_OF_PERICENTER":100.0115,"MEAN_ANOMALY":260.1745,"EPHEMERIS_TYPE":0,"CLASSIFICATION_TYPE":"U","NORAD_CAT_ID":67688,"ELEMENT_SET_NO":999,"REV_AT_EPOCH":216,"BSTAR":0.00080053125,"MEAN_MOTION_DOT":0.00046852,"MEAN_MOTION_DDOT":0},{"OBJECT_NAME":"CREW DRAGON 12","OBJECT_ID":"2026-031A","EPOCH":"2026-02-21T05:58:25.424832","MEAN_MOTION":15.48178501,"ECCENTRICITY":0.00085229,"INCLINATION":51.6322,"RA_OF_ASC_NODE":153.6219,"ARG_OF_PERICENTER":117.8535,"MEAN_ANOMALY":242.3318,"EPHEMERIS_TYPE":0,"CLASSIFICATION_TYPE":"U","NORAD_CAT_ID":67796,"ELEMENT_SET_NO":999,"REV_AT_EPOCH":55375,"BSTAR":0.00021781902,"MEAN_MOTION_DOT":0.00011241,"MEAN_MOTION_DDOT":0},{"OBJECT_NAME":"GPS BIIR-2  (PRN 13)","OBJECT_ID":"1997-035A","EPOCH":"2026-02-21T00:46:54.097248","MEAN_MOTION":2.00563926,"ECCENTRICITY":0.00976518,"INCLINATION":55.9288,"RA_OF_ASC_NODE":103.1165,"ARG_OF_PERICENTER":56.3676,"MEAN_ANOMALY":304.6417,"EPHEMERIS_TYPE":0,"CLASSIFICATION_TYPE":"U","NORAD_CAT_ID":24876,"ELEMENT_SET_NO":999,"REV_AT_EPOCH":20962,"BSTAR":0,"MEAN_MOTION_DOT":2.1e-07,"MEAN_MOTION_DDOT":0},{"OBJECT_NAME":"GPS BIIR-5  (PRN 22)","OBJECT_ID":"2000-040A","EPOCH":"2026-02-20T21:02:58.975008","MEAN_MOTION":2.00568696,"ECCENTRICITY":0.0122992,"INCLINATION":54.8781,"RA_OF_ASC_NODE":219.7794,"ARG_OF_PERICENTER":302.504,"MEAN_ANOMALY":239.1503,"EPHEMERIS_TYPE":0,"CLASSIFICATION_TYPE":"U","NORAD_CAT_ID":26407,"ELEMENT_SET_NO":999,"REV_AT_EPOCH":18761,"BSTAR":0,"MEAN_MOTION_DOT":7.1e-07,"MEAN_MOTION_DDOT":0},{"OBJECT_NAME":"GPS BIIR-8  (PRN 16)","OBJECT_ID":"2003-005A","EPOCH":"2026-02-21T05:36:42.195744","MEAN_MOTION":2.00566795,"ECCENTRICITY":0.01487611,"INCLINATION":54.91,"RA_OF_ASC_NODE":219.5734,"ARG_OF_PERICENTER":52.6357,"MEAN_ANOMALY":162.6199,"EPHEMERIS_TYPE":0,"CLASSIFICATION_TYPE":"U","NORAD_CAT_ID":27663,"ELEMENT_SET_NO":999,"REV_AT_EPOCH":16898,"BSTAR":0,"MEAN_MOTION_DOT":7.4e-07,"MEAN_MOTION_DDOT":0},{"OBJECT_NAME":"GPS BIIR-11 (PRN 19)","OBJECT_ID":"2004-009A","EPOCH":"2026-02-20T17:53:07.212768","MEAN_MOTION":2.00558367,"ECCENTRICITY":0.01104301,"INCLINATION":54.9251,"RA_OF_ASC_NODE":280.3915,"ARG_OF_PERICENTER":168.7873,"MEAN_ANOMALY":209.9399,"EPHEMERIS_TYPE":0,"CLASSIFICATION_TYPE":"U","NORAD_CAT_ID":28190,"ELEMENT_SET_NO":999,"REV_AT_EPOCH":16061,"BSTAR":0,"MEAN_MOTION_DOT":1.5e-07,"MEAN_MOTION_DDOT":0},{"OBJECT_NAME":"GPS BIIR-13 (PRN 02)","OBJECT_ID":"2004-045A","EPOCH":"2026-02-21T05:31:10.956288","MEAN_MOTION":2.00572735,"ECCENTRICITY":0.01709976,"INCLINATION":55.2013,"RA_OF_ASC_NODE":329.5696,"ARG_OF_PERICENTER":312.3609,"MEAN_ANOMALY":119.2268,"EPHEMERIS_TYPE":0,"CLASSIFICATION_TYPE":"U","NORAD_CAT_ID":28474,"ELEMENT_SET_NO":999,"REV_AT_EPOCH":15610,"BSTAR":0,"MEAN_MOTION_DOT":-6.7e-07,"MEAN_MOTION_DDOT":0},{"OBJECT_NAME":"GPS BIIRM-1 (PRN 17)","OBJECT_ID":"2005-038A","EPOCH":"2026-02-20T10:16:30.626400","MEAN_MOTION":2.00573742,"ECCENTRICITY":0.01291684,"INCLINATION":54.972,"RA_OF_ASC_NODE":277.8891,"ARG_OF_PERICENTER":295.1511,"MEAN_ANOMALY":237.7641,"EPHEMERIS_TYPE":0,"CLASSIFICATION_TYPE":"U","NORAD_CAT_ID":28874,"ELEMENT_SET_NO":999,"REV_AT_EPOCH":14949,"BSTAR":0,"MEAN_MOTION_DOT":2e-07,"MEAN_MOTION_DDOT":0},{"OBJECT_NAME":"GPS BIIRM-2 (PRN 31)","OBJECT_ID":"2006-042A","EPOCH":"2026-02-20T09:28:43.541760","MEAN_MOTION":2.00551505,"ECCENTRICITY":0.01063678,"INCLINATION":54.6978,"RA_OF_ASC_NODE":155.9771,"ARG_OF_PERICENTER":53.0757,"MEAN_ANOMALY":353.3358,"EPHEMERIS_TYPE":0,"CLASSIFICATION_TYPE":"U","NORAD_CAT_ID":29486,"ELEMENT_SET_NO":999,"REV_AT_EPOCH":14205,"BSTAR":0,"MEAN_MOTION_DOT":3.5e-07,"MEAN_MOTION_DDOT":0},{"OBJECT_NAME":"GPS BIIRM-3 (PRN 12)","OBJECT_ID":"2006-052A","EPOCH":"2026-02-20T17:53:58.677792","MEAN_MOTION":2.00550724,"ECCENTRICITY":0.0088077,"INCLINATION":54.9593,"RA_OF_ASC_NODE":218.6192,"ARG_OF_PERICENTER":89.1539,"MEAN_ANOMALY":271.8269,"EPHEMERIS_TYPE":0,"CLASSIFICATION_TYPE":"U","NORAD_CAT_ID":29601,"ELEMENT_SET_NO":999,"REV_AT_EPOCH":14107,"BSTAR":0,"MEAN_MOTION_DOT":7.1e-07,"MEAN_MOTION_DDOT":0},{"OBJECT_NAME":"GPS BIIRM-4 (PRN 15)","OBJECT_ID":"2007-047A","EPOCH":"2026-02-21T01:16:36.535296","MEAN_MOTION":2.0056124,"ECCENTRICITY":0.0163535,"INCLINATION":54.0064,"RA_OF_ASC_NODE":84.8521,"ARG_OF_PERICENTER":85.8778,"MEAN_ANOMALY":276.061,"EPHEMERIS_TYPE":0,"CLASSIFICATION_TYPE":"U","NORAD_CAT_ID":32260,"ELEMENT_SET_NO":999,"REV_AT_EPOCH":13448,"BSTAR":0,"MEAN_MOTION_DOT":8e-08,"MEAN_MOTION_DDOT":0},{"OBJECT_NAME":"GPS BIIRM-5 (PRN 29)","OBJECT_ID":"2007-062A","EPOCH":"2026-02-21T02:45:28.795968","MEAN_MOTION":2.0055273,"ECCENTRICITY":0.00326003,"INCLINATION":55.1234,"RA_OF_ASC_NODE":278.8179,"ARG_OF_PERICENTER":160.6591,"MEAN_ANOMALY":12.3349,"EPHEMERIS_TYPE":0,"CLASSIFICATION_TYPE":"U","NORAD_CAT_ID":32384,"ELEMENT_SET_NO":999,"REV_AT_EPOCH":13318,"BSTAR":0,"MEAN_MOTION_DOT":1.8e-07,"MEAN_MOTION_DDOT":0},{"OBJECT_NAME":"GPS BIIRM-6 (PRN 07)","OBJECT_ID":"2008-012A","EPOCH":"2026-02-19T23:23:39.779808","MEAN_MOTION":2.00568617,"ECCENTRICITY":0.02062482,"INCLINATION":54.482,"RA_OF_ASC_NODE":154.6087,"ARG_OF_PERICENTER":245.9646,"MEAN_ANOMALY":111.8802,"EPHEMERIS_TYPE":0,"CLASSIFICATION_TYPE":"U","NORAD_CAT_ID":32711,"ELEMENT_SET_NO":999,"REV_AT_EPOCH":13140,"BSTAR":0,"MEAN_MOTION_DOT":3.4e-07,"MEAN_MOTION_DDOT":0},{"OBJECT_NAME":"GPS BIIRM-8 (PRN 05)","OBJECT_ID":"2009-043A","EPOCH":"2026-02-20T23:07:30.211104","MEAN_MOTION":2.00561059,"ECCENTRICITY":0.0051519,"INCLINATION":56.1407,"RA_OF_ASC_NODE":32.0173,"ARG_OF_PERICENTER":80.77,"MEAN_ANOMALY":289.5394,"EPHEMERIS_TYPE":0,"CLASSIFICATION_TYPE":"U","NORAD_CAT_ID":35752,"ELEMENT_SET_NO":999,"REV_AT_EPOCH":12103,"BSTAR":0,"MEAN_MOTION_DOT":-4.3e-07,"MEAN_MOTION_DDOT":0},{"OBJECT_NAME":"GPS BIIF-1  (PRN 25)","OBJECT_ID":"2010-022A","EPOCH":"2026-02-20T09:18:18.341856","MEAN_MOTION":2.00556579,"ECCENTRICITY":0.01274071,"INCLINATION":54.2912,"RA_OF_ASC_NODE":213.265,"ARG_OF_PERICENTER":65.8014,"MEAN_ANOMALY":5.5748,"EPHEMERIS_TYPE":0,"CLASSIFICATION_TYPE":"U","NORAD_CAT_ID":36585,"ELEMENT_SET_NO":999,"REV_AT_EPOCH":11525,"BSTAR":0,"MEAN_MOTION_DOT":6.6e-07,"MEAN_MOTION_DDOT":0},{"OBJECT_NAME":"GPS BIIF-3  (PRN 24)","OBJECT_ID":"2012-053A","EPOCH":"2026-02-20T03:39:50.103072","MEAN_MOTION":2.00565593,"ECCENTRICITY":0.0176796,"INCLINATION":53.565,"RA_OF_ASC_NODE":148.3957,"ARG_OF_PERICENTER":64.7007,"MEAN_ANOMALY":297.1464,"EPHEMERIS_TYPE":0,"CLASSIFICATION_TYPE":"U","NORAD_CAT_ID":38833,"ELEMENT_SET_NO":999,"REV_AT_EPOCH":9709,"BSTAR":0,"MEAN_MOTION_DOT":3.1e-07,"MEAN_MOTION_DDOT":0},{"OBJECT_NAME":"GPS BIIF-4  (PRN 27)","OBJECT_ID":"2013-023A","EPOCH":"2026-02-20T00:25:03.759168","MEAN_MOTION":2.00564194,"ECCENTRICITY":0.0141284,"INCLINATION":54.5951,"RA_OF_ASC_NODE":273.746,"ARG_OF_PERICENTER":49.7091,"MEAN_ANOMALY":311.5755,"EPHEMERIS_TYPE":0,"CLASSIFICATION_TYPE":"U","NORAD_CAT_ID":39166,"ELEMENT_SET_NO":999,"REV_AT_EPOCH":9353,"BSTAR":0,"MEAN_MOTION_DOT":2.7e-07,"MEAN_MOTION_DDOT":0}]