NAVSTAR 43 (USA 132)    
1 24876U 97035A   26052.03257057  .00000021  00000+0  00000+0 0  9996
2 24876  55.9288 103.1165 0097651  56.3676 304.6417  2.00563926209621
NAVSTAR 48 (USA 151)    
1 26407U 00040A   26051.87707147  .00000071  00000+0  00000+0 0  9994
2 26407  54.8781 219.7794 0122992 302.5040 239.1503  2.00568696187610
NAVSTAR 51 (USA 166)    
1 27663U 03005A   26052.23382171  .00000074  00000+0  00000+0 0  9993
2 27663  54.9100 219.5734 0148761  52.6357 162.6199  2.00566795168987
NAVSTAR 54 (USA 177)    
1 28190U 04009A   26051.74522237  .00000015  00000+0  00000+0 0  9993
2 28190  54.9251 280.3915 0110430 168.7873 209.9399  2.00558367160616
NAVSTAR 56 (USA 180)    
1 28474U 04045A   26052.22998792 -.00000067  00000+0  00000+0 0  9993
2 28474  55.2013 329.5696 0170997 312.3609 119.2268  2.00572735156103
NAVSTAR 57 (USA 183)    
1 28874U 05038A   26051.42813225  .00000020  00000+0  00000+0 0  9996
2 28874  54.9720 277.8891 0129168 295.1511 237.7641  2.00573742149498
NAVSTAR 58 (USA 190)    
1 29486U 06042A   26051.39494840  .00000035  00000+0  00000+0 0  9992
2 29486  54.6978 155.9771 0106367  53.0757 353.3358  2.00551505142050
NAVSTAR 59 (USA 192)    
1 29601U 06052A   26051.74581803  .00000071  00000+0  00000+0 0  9997
2 29601  54.9593 218.6192 0088077  89.1539 271.8269  2.00550724141072
NAVSTAR 60 (USA 196)    
1 32260U 07047A   26052.05320064  .00000008  00000+0  00000+0 0  9992
2 32260  54.0064  84.8521 0163535  85.8778 276.0610  2.00561240134480
NAVSTAR 61 (USA 199)    
1 32384U 07062A   26052.11491662  .00000018  00000+0  00000+0 0  9997
2 32384  55.1234 278.8179 0032600 160.6591  12.3349  2.00552730133185
NAVSTAR 62 (USA 201)    
1 32711U 08012A   26050.97476597  .00000034  00000+0  00000+0 0  9997
2 32711  54.4820 154.6087 0206248 245.9646 111.8802  2.00568617131403
NAVSTAR 64 (USA 206)    
1 35752U 09043A   26051.96354411 -.00000043  00000+0  00000+0 0  9991
2 35752  56.1407  32.0173 0051519  80.7700 289.5394  2.00561059121031
NAVSTAR 65 (USA 213)    
1 36585U 10022A   26051.38771229  .00000066  00000+0  00000+0 0  9995
2 36585  54.2912 213.2650 0127407  65.8014   5.5748  2.00556579115258
NAVSTAR 67 (USA 239)    
1 38833U 12053A   26051.15266323  .00000031  00000+0  00000+0 0  9990
2 38833  53.5650 148.3957 0176796  64.7007 297.1464  2.00565593 97091
NAVSTAR 68 (USA 242)    
1 39166U 13023A   26051.01740462  .00000027  00000+0  00000+0 0  9999
2 39166  54.5951 273.7460 0141284  49.7091 311.5755  2.00564194 93533
ISS OBJECT YE           
1 67688U 98067YE  26052.29631605  .00046852  00000+0  80053-3 0  9995
2 67688  51.6323 153.1914 0007710 100.0115 260.1745 15.50790998  2161
CREW DRAGON 12          
1 67796U 26031A   26052.24890538  .00011241  00000+0  21782-3 0  9992
2 67796  51.6322 153.6219 0008522 117.8535 242.3318 15.48178501553758
